ONEWEB-0584             
1 54651U 22166K   23329.31124196  .00000132  00000+0  28695-3 0  9992
2 54651  87.9254  70.0806 0001933  90.6309 269.5046 13.21826970 48016
ONEWEB-0585             
1 54652U 22166L   23329.33647730  .00000342  00000+0  79591-3 0  9993
2 54652  87.9252  70.0790 0001458 104.1255 256.0041 13.21825488 48020
ONEWEB-0586             
1 54653U 22166M   23329.34908739  .00000095  00000+0  19869-3 0  9991
2 54653  87.9231  70.1097 0001840  94.1285 266.0059 13.21828012 48021
ONEWEB-0587             
1 54654U 22166N   23329.28286731  .00000057  00000+0  10650-3 0  9993
2 54654  87.9247  70.0765 0001581 114.0619 246.0680 13.21824149 48176
ONEWEB-0589             
1 54655U 22166P   23329.34594312  .00000374  00000+0  87426-3 0  9995
2 54655  87.9258  70.0838 0002535  82.7047 277.4375 13.21825340 48045
ONEWEB-0590             
1 54656U 22166Q   23329.29391871  .00000460  00000+0  10827-2 0  9991
2 54656  87.9255  70.0972 0001852 109.5091 250.6243 13.21828065 48022
ONEWEB-0591             
1 54657U 22166R   23329.30650678  .00000137  00000+0  30138-3 0  9996
2 54657  87.9259  70.0955 0001851  96.4691 263.6654 13.21828410 48054
ONEWEB-0592             
1 54658U 22166S   23329.30967941  .00000094  00000+0  19590-3 0  9992
2 54658  87.9248  70.0725 0001934  90.5198 269.6157 13.21826307 47930
